ONEWEB-0578             
1 56067U 23043X   24357.42008448  .00000130  00000+0  28399-3 0  9994
2 56067  87.9294 351.9099 0001946  90.2428 269.8929 13.21825540 87579
ONEWEB-0579             
1 56068U 23043Y   24356.95643695 -.00000160  00000+0 -41785-3 0  9990
2 56068  87.9289 351.9936 0001521  79.9402 280.1904 13.21824740 86613
ONEWEB-0581             
1 56069U 23043Z   24356.45598276  .00000005  00000+0 -21734-4 0  9990
2 56069  87.9086 336.9275 0002001  70.9870 289.1477 13.16595471 87549
ONEWEB-0609             
1 56070U 23043AA  24357.04711627  .00000084  00000+0  18988-3 0  9997
2 56070  87.9066   7.1535 0001716  95.5361 264.5965 13.15550544 86061
ONEWEB-0613             
1 56071U 23043AB  24357.04235365  .00000107  00000+0  24991-3 0  9995
2 56071  87.9070   7.1584 0001438  88.8947 271.2348 13.15551695 86065
ONEWEB-0630             
1 56072U 23043AC  24357.11367655  .00000142  00000+0  34407-3 0  9994
2 56072  87.9066   7.1284 0001430  92.2910 267.8385 13.15550188 86067
ONEWEB-0632             
1 56073U 23043AD  24357.10891674  .00000117  00000+0  27678-3 0  9991
2 56073  87.9067   7.1485 0001795  82.3521 277.7813 13.15550707 86067
ONEWEB-0633             
1 56074U 23043AE  24356.57018033  .00000123  00000+0  29230-3 0  9995
2 56074  87.9062   7.2303 0001303 100.3803 259.7474 13.15548001 85068
